42809,IRIDIUM 126,2017,100.4,860.0,+,86.4,Active,1,LEO,USA,USA,Commercial/Government,Communications,Falcon,1 42809U 17039G   24324.88396980  .00000094  00000+0  26392-4 0  9997,2 42809  86.3997 233.5907 0002373  84.4843 275.6623 14.34217553387646,14.34217553,0.0002373,LEO
42810,IRIDIUM 124,2017,99.77,860.0,+,86.45,Active,1,LEO,USA,USA,Commercial/Government,Communications,Falcon,1 42810U 17039H   24324.29972602  .00000672  00000+0  19385-3 0  9990,2 42810  86.4521 170.6778 0001829  75.0856 285.0547 14.43287133392191,14.43287133,0.0001829,LEO
42811,IRIDIUM 128,2017,100.4,860.0,+,86.4,Active,1,LEO,USA,USA,Commercial/Government,Communications,Falcon,1 42811U 17039J   24325.29331642  .00000373  00000+0  12596-3 0  9990,2 42811  86.3954 264.9409 0002356  77.9652 282.1808 14.34217105387723,14.34217105,0.0002356,LEO
42812,IRIDIUM 121,2017,100.4,860.0,+,86.4,Active,1,LEO,USA,USA,Commercial/Government,Communications,Falcon,1 42812U 17039K   24325.18207238  .00000568  00000+0  19564-3 0  9990,2 42812  86.3997 233.4899 0002121  79.9818 280.1617 14.34220441387678,14.34220441,0.0002121,LEO
42955,IRIDIUM 133,2017,100.4,860.0,+,86.4,Active,1,LEO,USA,USA,Commercial/Government,Communications,Falcon,1 42955U 17061A   24324.90642166  .00000654  00000+0  22638-3 0  9997,2 42955  86.3954 265.2062 0002216  84.0195 276.1253 14.34221241372465,14.34221241,0.0002216,LEO
42956,IRIDIUM 100,2017,100.4,860.0,+,86.4,Active,1,LEO,USA,USA,Commercial/Government,Communications,Falcon,1 42956U 17061B   24325.24891904  .00000609  00000+0  21050-3 0  9999,2 42956  86.3953 264.9948 0002346  77.3571 282.7887 14.34220508372530,14.34220508,0.0002346,LEO
42957,IRIDIUM 122,2017,100.4,860.0,+,86.4,Active,1,LEO,USA,USA,Commercial/Government,Communications,Falcon,1 42957U 17061C   24325.28698466  .00000567  00000+0  19546-3 0  9992,2 42957  86.3953 264.9778 0002524  80.0530 280.0950 14.34219707372526,14.34219707,0.0002524,LEO
42958,IRIDIUM 129,2017,100.4,860.0,+,86.4,Active,1,LEO,USA,USA,Commercial/Government,Communications,Falcon,1 42958U 17061D   24325.31234673  .00000037  00000+0  60407-5 0  9999,2 42958  86.3955 265.0281 0002300  92.4358 267.7101 14.34217289372542,14.34217289,0.00023,LEO
